OBJECT_NAME,OBJECT_ID,EPOCH,MEAN_MOTION,ECCENTRICITY,INCLINATION,RA_OF_ASC_NODE,ARG_OF_PERICENTER,MEAN_ANOMALY,EPHEMERIS_TYPE,CLASSIFICATION_TYPE,NORAD_CAT_ID,ELEMENT_SET_NO,REV_AT_EPOCH,BSTAR,MEAN_MOTION_DOT,MEAN_MOTION_DDOT
ONEWEB-0225,2021-045AJ,2026-06-06T15:19:46.480224,13.15548486,.0001362,87.9005,261.2991,99.4937,260.6348,0,U,48799,999,24303,.22683E-3,.98E-6,0
ONEWEB-0215,2021-045AK,2026-06-06T12:46:52.008960,13.15550731,.0001215,87.9009,261.3018,106.5907,253.5357,0,U,48800,999,24289,-.14711E-3,-.43E-6,0
ONEWEB-0216,2021-045AL,2026-06-06T13:00:35.394048,13.15548528,.0001986,87.9011,261.3153,98.3779,261.7577,0,U,48801,999,24290,-.15153E-3,-.44E-6,0
ONEWEB-0239,2021-045AM,2026-06-06T13:07:25.565952,13.15548500,.0001297,87.9004,261.3218,118.2541,241.8721,0,U,48802,999,24294,-.11234E-3,-.29E-6,0
ONEWEB-0249,2021-060A,2026-06-06T13:34:03.432000,13.16595178,.0001992,87.9103,230.8871,102.5478,257.5876,0,U,48967,999,23821,.27517E-3,.118E-5,0
ONEWEB-0250,2021-060B,2026-06-06T14:11:11.927328,13.25833833,.0002615,87.9095,228.6724,123.4580,236.6806,0,U,48968,999,23881,-.34282E-3,-.137E-5,0
ONEWEB-0252,2021-060D,2026-06-06T14:18:30.232800,13.16593989,.0001959,87.9106,230.8729,92.5391,267.5965,0,U,48970,999,23826,.18379E-3,.83E-6,0
ONEWEB-0253,2021-060E,2026-06-06T14:02:32.671968,13.16593053,.0002031,87.9103,230.8805,104.1909,255.9447,0,U,48971,999,23819,.2214E-4,.21E-6,0
ONEWEB-0254,2021-060F,2026-06-06T14:16:14.016288,13.16594055,.0001795,87.9107,230.8757,107.0763,253.0564,0,U,48972,999,23819,-.1689E-6,.13E-6,0
ONEWEB-0255,2021-060G,2026-06-06T04:14:20.362848,13.16593576,.00018578,87.9099,230.9663,101.3740,258.7600,0,U,48973,999,23821,.64698917E-4,.38E-6,0
ONEWEB-0256,2021-060H,2026-06-06T13:59:06.755712,13.16592943,.0002158,87.9102,230.8899,97.4734,262.6642,0,U,48974,999,23823,.1656E-3,.76E-6,0
ONEWEB-0257,2021-060J,2026-06-06T14:45:51.857856,13.16593851,.0001916,87.9105,230.8704,96.4349,263.7000,0,U,48975,999,23819,-.11677E-3,-.32E-6,0
ONEWEB-0258,2021-060K,2026-06-06T14:48:08.807040,13.16593912,.0002027,87.9105,230.8820,100.7565,259.3794,0,U,48976,999,23820,-.15106E-3,-.45E-6,0
ONEWEB-0259,2021-060L,2026-06-06T11:00:09.730080,13.16594757,.00019423,87.9104,230.9124,103.7913,256.3434,0,U,48977,999,23821,.35169156E-4,.26E-6,0
ONEWEB-0260,2021-060M,2026-06-06T14:26:28.735008,13.16594078,.0002137,87.9100,230.8865,87.6907,272.4469,0,U,48978,999,23821,.59525E-4,.36E-6,0
ONEWEB-0261,2021-060N,2026-06-06T13:43:09.505056,13.16595309,.0001664,87.9100,230.8921,95.5883,264.5438,0,U,48979,999,23826,-.79789E-5,.1E-6,0
ONEWEB-0262,2021-060P,2026-06-06T15:04:06.608064,13.16593982,.0001948,87.9100,230.8666,107.1336,253.0009,0,U,48980,999,23823,-.40475E-4,-.3E-7,0
ONEWEB-0263,2021-060Q,2026-06-06T14:00:16.323264,13.16594301,.0001709,87.9106,230.8868,100.5127,259.6197,0,U,48981,999,23819,.22135E-3,.97E-6,0
ONEWEB-0264,2021-060R,2026-06-06T14:53:51.453888,13.16594117,.0001926,87.9100,230.8825,93.3483,266.7868,0,U,48982,999,23820,-.1271E-3,-.36E-6,0
ONEWEB-0266,2021-060T,2026-06-06T13:35:11.307840,13.16594006,.0002121,87.9102,230.8839,100.6416,259.4954,0,U,48984,999,23818,.51036E-3,.208E-5,0
ONEWEB-0267,2021-060U,2026-06-06T13:51:09.252288,13.16594348,.0001827,87.9106,230.8782,96.6112,263.5227,0,U,48985,999,23819,.24592E-3,.107E-5,0
ONEWEB-0268,2021-060V,2026-06-06T14:54:59.060160,13.16594890,.0002123,87.9104,230.8793,95.5722,264.5651,0,U,48986,999,23846,-.37324E-4,-.1E-7,0
ONEWEB-0269,2021-060W,2026-06-06T14:27:37.838592,13.16594193,.0002243,87.9096,230.8868,95.5659,264.5728,0,U,48987,999,23823,-.32869E-4,0,0
ONEWEB-0270,2021-060X,2026-06-06T14:52:42.697632,13.16594258,.0001718,87.9106,230.8812,105.1757,254.9564,0,U,48988,999,23827,-.11744E-3,-.32E-6,0
ONEWEB-0271,2021-060Y,2026-06-06T14:34:28.248096,13.16594558,.0001744,87.9102,230.8737,98.4898,261.6431,0,U,48989,999,23827,-.13374E-3,-.38E-6,0
ONEWEB-0272,2021-060Z,2026-06-06T11:27:29.668608,13.16595892,.00019498,87.9101,230.9113,90.7159,269.4196,0,U,48990,999,23820,-.1080414E-5,.12E-6,0
ONEWEB-0273,2021-060AA,2026-06-06T13:48:52.462080,13.16594736,.0001874,87.9109,230.8909,100.4110,259.7232,0,U,48991,999,23819,.2763E-3,.118E-5,0
ONEWEB-0274,2021-060AB,2026-06-06T14:25:20.159328,13.16593663,.0002055,87.9097,230.8893,90.1279,270.0088,0,U,48992,999,23823,.14331E-3,.68E-6,0
ONEWEB-0275,2021-060AC,2026-06-06T14:09:23.755392,13.16593769,.0001944,87.9105,230.8794,96.2615,263.8737,0,U,48993,999,23816,-.35209E-4,-.1E-7,0
ONEWEB-0276,2021-060AD,2026-06-06T14:57:15.878016,13.16593771,.0002044,87.9102,230.8727,94.2498,265.8866,0,U,48994,999,23818,-.73307E-4,-.15E-6,0
