ONEWEB-0225             
1 48799U 21045AJ  26157.63873241  .00000098  00000+0  22683-3 0  9994
2 48799  87.9005 261.2991 0001362  99.4937 260.6348 13.15548486243037
ONEWEB-0215             
1 48800U 21045AK  26157.53254640 -.00000043  00000+0 -14711-3 0  9997
2 48800  87.9009 261.3018 0001215 106.5907 253.5357 13.15550731242899
ONEWEB-0216             
1 48801U 21045AL  26157.54207632 -.00000044  00000+0 -15153-3 0  9990
2 48801  87.9011 261.3153 0001986  98.3779 261.7577 13.15548528242901
ONEWEB-0239             
1 48802U 21045AM  26157.54682368 -.00000029  00000+0 -11234-3 0  9993
2 48802  87.9004 261.3218 0001297 118.2541 241.8721 13.15548500242944
ONEWEB-0249             
1 48967U 21060A   26157.56531750  .00000118  00000+0  27517-3 0  9990
2 48967  87.9103 230.8871 0001992 102.5478 257.5876 13.16595178238213
ONEWEB-0250             
1 48968U 21060B   26157.59111027 -.00000137  00000+0 -34282-3 0  9995
2 48968  87.9095 228.6724 0002615 123.4580 236.6806 13.25833833238815
ONEWEB-0252             
1 48970U 21060D   26157.59618325  .00000083  00000+0  18379-3 0  9998
2 48970  87.9106 230.8729 0001959  92.5391 267.5965 13.16593989238260
ONEWEB-0253             
1 48971U 21060E   26157.58510037  .00000021  00000+0  22140-4 0  9993
2 48971  87.9103 230.8805 0002031 104.1909 255.9447 13.16593053238190
ONEWEB-0254             
1 48972U 21060F   26157.59460667  .00000013  00000+0 -16890-6 0  9997
2 48972  87.9107 230.8757 0001795 107.0763 253.0564 13.16594055238199
ONEWEB-0255             
1 48973U 21060G   26157.17662457  .00000038  00000+0  64699-4 0  9997
2 48973  87.9099 230.9663 0001857 101.3740 258.7600 13.16593576238211
ONEWEB-0256             
1 48974U 21060H   26157.58271708  .00000076  00000+0  16560-3 0  9993
2 48974  87.9102 230.8899 0002158  97.4734 262.6642 13.16592943238239
ONEWEB-0257             
1 48975U 21060J   26157.61518354 -.00000032  00000+0 -11677-3 0  9997
2 48975  87.9105 230.8704 0001916  96.4349 263.7000 13.16593851238194
ONEWEB-0258             
1 48976U 21060K   26157.61676860 -.00000045  00000+0 -15106-3 0  9990
2 48976  87.9105 230.8820 0002027 100.7565 259.3794 13.16593912238208
ONEWEB-0259             
1 48977U 21060L   26157.45844595  .00000026  00000+0  35169-4 0  9994
2 48977  87.9104 230.9124 0001942 103.7913 256.3434 13.16594757238218
ONEWEB-0260             
1 48978U 21060M   26157.60172147  .00000036  00000+0  59525-4 0  9992
2 48978  87.9100 230.8865 0002137  87.6907 272.4469 13.16594078238219
ONEWEB-0261             
1 48979U 21060N   26157.57163779  .00000010  00000+0 -79789-5 0  9998
2 48979  87.9100 230.8921 0001664  95.5883 264.5438 13.16595309238269
ONEWEB-0262             
1 48980U 21060P   26157.62785426 -.00000003  00000+0 -40475-4 0  9997
2 48980  87.9100 230.8666 0001948 107.1336 253.0009 13.16593982238234
ONEWEB-0263             
1 48981U 21060Q   26157.58352226  .00000097  00000+0  22135-3 0  9994
2 48981  87.9106 230.8868 0001709 100.5127 259.6197 13.16594301238196
ONEWEB-0264             
1 48982U 21060R   26157.62073442 -.00000036  00000+0 -12710-3 0  9993
2 48982  87.9100 230.8825 0001926  93.3483 266.7868 13.16594117238200
ONEWEB-0266             
1 48984U 21060T   26157.56610310  .00000208  00000+0  51036-3 0  9992
2 48984  87.9102 230.8839 0002121 100.6416 259.4954 13.16594006238184
ONEWEB-0267             
1 48985U 21060U   26157.57719042  .00000107  00000+0  24592-3 0  9991
2 48985  87.9106 230.8782 0001827  96.6112 263.5227 13.16594348238194
ONEWEB-0268             
1 48986U 21060V   26157.62151690 -.00000001  00000+0 -37324-4 0  9990
2 48986  87.9104 230.8793 0002123  95.5722 264.5651 13.16594890238464
ONEWEB-0269             
1 48987U 21060W   26157.60252128  .00000000  00000+0 -32869-4 0  9994
2 48987  87.9096 230.8868 0002243  95.5659 264.5728 13.16594193238236
ONEWEB-0270             
1 48988U 21060X   26157.61993863 -.00000032  00000+0 -11744-3 0  9998
2 48988  87.9106 230.8812 0001718 105.1757 254.9564 13.16594258238278
ONEWEB-0271             
1 48989U 21060Y   26157.60727139 -.00000038  00000+0 -13374-3 0  9996
2 48989  87.9102 230.8737 0001744  98.4898 261.6431 13.16594558238271
ONEWEB-0272             
1 48990U 21060Z   26157.47742672  .00000012  00000+0 -10804-5 0  9990
2 48990  87.9101 230.9113 0001949  90.7159 269.4196 13.16595892238202
ONEWEB-0273             
1 48991U 21060AA  26157.57560720  .00000118  00000+0  27630-3 0  9993
2 48991  87.9109 230.8909 0001874 100.4110 259.7232 13.16594736238193
ONEWEB-0274             
1 48992U 21060AB  26157.60092777  .00000068  00000+0  14331-3 0  9998
2 48992  87.9097 230.8893 0002055  90.1279 270.0088 13.16593663238233
ONEWEB-0275             
1 48993U 21060AC  26157.58985828 -.00000001  00000+0 -35209-4 0  9991
2 48993  87.9105 230.8794 0001944  96.2615 263.8737 13.16593769238161
ONEWEB-0276             
1 48994U 21060AD  26157.62310044 -.00000015  00000+0 -73307-4 0  9995
2 48994  87.9102 230.8727 0002044  94.2498 265.8866 13.16593771238184
